OBJECT_NAME,OBJECT_ID,EPOCH,MEAN_MOTION,ECCENTRICITY,INCLINATION,RA_OF_ASC_NODE,ARG_OF_PERICENTER,MEAN_ANOMALY,EPHEMERIS_TYPE,CLASSIFICATION_TYPE,NORAD_CAT_ID,ELEMENT_SET_NO,REV_AT_EPOCH,BSTAR,MEAN_MOTION_DOT,MEAN_MOTION_DDOT
SAUDISAT 1C (SO-50),2002-058C,2026-06-26T06:12:23.852160,14.83064844,.0075048,64.5520,100.9188,260.7782,98.4830,0,U,27607,999,26580,.12777E-3,.937E-5,0
SAUDISAT 2,2004-025F,2026-06-26T10:32:41.801280,14.56688789,.00234329,98.5508,177.6604,268.3312,91.5201,0,U,28371,999,16709,.66807357E-4,.249E-5,0
SAUDISAT 3,2007-012B,2026-06-26T13:47:58.126848,14.71430459,.0014259,98.1458,127.9818,192.4380,167.6477,0,U,31118,999,2912,.45532E-4,.231E-5,0
PISAT,2016-059B,2026-06-26T11:25:10.650144,14.68998033,.0029159,97.8180,177.5295,172.8528,187.3100,0,U,41784,999,52110,.15291E-3,.855E-5,0
FLYING LAPTOP,2017-042G,2026-06-26T17:13:02.960832,15.01205222,.001999,97.4725,332.8861,91.3734,268.9781,0,U,42831,999,48788,.291E-3,.3692E-4,0
SALSAT,2020-068K,2026-06-26T11:58:12.031104,15.29924136,.000781,97.8850,181.1309,268.2261,91.8084,0,U,46495,999,31678,.27079E-3,.7768E-4,0
